STARLINK-5135           
1 54005U 22125AT  26068.67095012 -.00000442  00000+0 -96696-5 0  9990
2 54005  53.2166 213.9254 0001236  85.5500 274.5633 15.08844143189466
STARLINK-5895           
1 55964U 23037BC  26068.93316413  .00010921  00000+0  72850-3 0  9993
2 55964  69.9972 260.0280 0004986 264.4993  95.5602 15.07243555164606
