[{"OBJECT_NAME":"STARLINK-5135","OBJECT_ID":"2022-125AT","EPOCH":"2026-03-09T16:06:10.090368","MEAN_MOTION":15.08844143,"ECCENTRICITY":0.00012368,"INCLINATION":53.2166,"RA_OF_ASC_NODE":213.9254,"ARG_OF_PERICENTER":85.55,"MEAN_ANOMALY":274.5633,"EPHEMERIS_TYPE":0,"CLASSIFICATION_TYPE":"U","NORAD_CAT_ID":54005,"ELEMENT_SET_NO":999,"REV_AT_EPOCH":18946,"BSTAR":-9.669634e-6,"MEAN_MOTION_DOT":-4.42e-6,"MEAN_MOTION_DDOT":0},{"OBJECT_NAME":"STARLINK-5895","OBJECT_ID":"2023-037BC","EPOCH":"2026-03-09T22:23:45.381696","MEAN_MOTION":15.07243555,"ECCENTRICITY":0.00049855,"INCLINATION":69.9972,"RA_OF_ASC_NODE":260.028,"ARG_OF_PERICENTER":264.4993,"MEAN_ANOMALY":95.5602,"EPHEMERIS_TYPE":0,"CLASSIFICATION_TYPE":"U","NORAD_CAT_ID":55964,"ELEMENT_SET_NO":999,"REV_AT_EPOCH":16460,"BSTAR":0.00072849946,"MEAN_MOTION_DOT":0.00010921,"MEAN_MOTION_DDOT":0}]
